CENTAURI-1              
1 43809U 18099BD  26197.63447705  .00002805  00000+0  14657-3 0  9992
2 43809  97.4203 248.7241 0013095 219.4390 140.5891 15.16632634416966
CENTAURI-6              
1 59451U 24066K   26197.18963853  .00002283  00000+0  17062-3 0  9993
2 59451  45.6065 103.0030 0001643 251.9355 108.1350 15.06039629124492
CENTAURI-7              
1 62708U 25009DD  26197.65446255  .00001485  00000+0  13080-3 0  9993
2 62708  97.7102 277.5571 0002643  99.9934 260.1587 14.97979449 81879
CENTAURI-8              
1 62714U 25009DK  26197.21558765  .00001410  00000+0  12460-3 0  9991
2 62714  97.7037 276.9436 0002469  77.7069 282.4429 14.97928994 81821
