{"fetched_at":"2026-07-17T06:38:08.504Z","source":"https://celestrak.org/NORAD/elements/gp.php?NAME=CENTAURI&FORMAT=JSON","constellation":"myriota","records":[{"OBJECT_NAME":"CENTAURI-1","OBJECT_ID":"2018-099BD","EPOCH":"2026-07-16T15:13:38.817120","CLASSIFICATION_TYPE":"U","MEAN_MOTION":15.16632634,"ECCENTRICITY":0.0013095,"INCLINATION":97.4203,"RA_OF_ASC_NODE":248.7241,"ARG_OF_PERICENTER":219.439,"MEAN_ANOMALY":140.5891,"EPHEMERIS_TYPE":0,"NORAD_CAT_ID":43809,"ELEMENT_SET_NO":999,"REV_AT_EPOCH":41696,"BSTAR":0.00014657,"MEAN_MOTION_DOT":0.00002805,"MEAN_MOTION_DDOT":0},{"OBJECT_NAME":"CENTAURI-6","OBJECT_ID":"2024-066K","EPOCH":"2026-07-16T04:33:04.768992","CLASSIFICATION_TYPE":"U","MEAN_MOTION":15.06039629,"ECCENTRICITY":0.0001643,"INCLINATION":45.6065,"RA_OF_ASC_NODE":103.003,"ARG_OF_PERICENTER":251.9355,"MEAN_ANOMALY":108.135,"EPHEMERIS_TYPE":0,"NORAD_CAT_ID":59451,"ELEMENT_SET_NO":999,"REV_AT_EPOCH":12449,"BSTAR":0.00017062,"MEAN_MOTION_DOT":0.00002283,"MEAN_MOTION_DDOT":0},{"OBJECT_NAME":"CENTAURI-7","OBJECT_ID":"2025-009DD","EPOCH":"2026-07-16T15:42:25.564320","CLASSIFICATION_TYPE":"U","MEAN_MOTION":14.97979449,"ECCENTRICITY":0.0002643,"INCLINATION":97.7102,"RA_OF_ASC_NODE":277.5571,"ARG_OF_PERICENTER":99.9934,"MEAN_ANOMALY":260.1587,"EPHEMERIS_TYPE":0,"NORAD_CAT_ID":62708,"ELEMENT_SET_NO":999,"REV_AT_EPOCH":8187,"BSTAR":0.0001308,"MEAN_MOTION_DOT":0.00001485,"MEAN_MOTION_DDOT":0},{"OBJECT_NAME":"CENTAURI-8","OBJECT_ID":"2025-009DK","EPOCH":"2026-07-16T05:10:26.772960","CLASSIFICATION_TYPE":"U","MEAN_MOTION":14.97928994,"ECCENTRICITY":0.0002469,"INCLINATION":97.7037,"RA_OF_ASC_NODE":276.9436,"ARG_OF_PERICENTER":77.7069,"MEAN_ANOMALY":282.4429,"EPHEMERIS_TYPE":0,"NORAD_CAT_ID":62714,"ELEMENT_SET_NO":999,"REV_AT_EPOCH":8182,"BSTAR":0.0001246,"MEAN_MOTION_DOT":0.0000141,"MEAN_MOTION_DDOT":0}]}
